<?xml version="1.0" encoding="UTF-8"?>
<ndm xmlns:xsi="http://www.w3.org/2001/XMLSchema-instance" xsi:noNamespaceSchemaLocation="https://sanaregistry.org/r/ndmxml_unqualified/ndmxml-2.0.0-master-2.0.xsd">
<omm id="CCSDS_OMM_VERS" version="2.0">
<header><CREATION_DATE/><ORIGINATOR/></header><body><segment><metadata><OBJECT_NAME>ISS DEB</OBJECT_NAME><OBJECT_ID>1998-067SK</OBJECT_ID><CENTER_NAME>EARTH</CENTER_NAME><REF_FRAME>TEME</REF_FRAME><TIME_SYSTEM>UTC</TIME_SYSTEM><MEAN_ELEMENT_THEORY>SGP4</MEAN_ELEMENT_THEORY></metadata><data><meanElements><EPOCH>2022-09-05T09:42:28.718784</EPOCH><MEAN_MOTION>15.72183626</MEAN_MOTION><ECCENTRICITY>.0003446</ECCENTRICITY><INCLINATION>51.6337</INCLINATION><RA_OF_ASC_NODE>275.3381</RA_OF_ASC_NODE><ARG_OF_PERICENTER>14.9552</ARG_OF_PERICENTER><MEAN_ANOMALY>345.1547</MEAN_ANOMALY></meanElements><tleParameters><EPHEMERIS_TYPE>0</EPHEMERIS_TYPE><CLASSIFICATION_TYPE>U</CLASSIFICATION_TYPE><NORAD_CAT_ID>48833</NORAD_CAT_ID><ELEMENT_SET_NO>999</ELEMENT_SET_NO><REV_AT_EPOCH>7170</REV_AT_EPOCH><BSTAR>.56827E-3</BSTAR><MEAN_MOTION_DOT>.76608E-3</MEAN_MOTION_DOT><MEAN_MOTION_DDOT>0</MEAN_MOTION_DDOT></tleParameters></data></segment></body></omm>
<omm id="CCSDS_OMM_VERS" version="2.0">
<header><CREATION_DATE/><ORIGINATOR/></header><body><segment><metadata><OBJECT_NAME>RAMSAT</OBJECT_NAME><OBJECT_ID>1998-067SL</OBJECT_ID><CENTER_NAME>EARTH</CENTER_NAME><REF_FRAME>TEME</REF_FRAME><TIME_SYSTEM>UTC</TIME_SYSTEM><MEAN_ELEMENT_THEORY>SGP4</MEAN_ELEMENT_THEORY></metadata><data><meanElements><EPOCH>2022-09-05T10:45:00.000288</EPOCH><MEAN_MOTION>15.85177259</MEAN_MOTION><ECCENTRICITY>.0006355</ECCENTRICITY><INCLINATION>51.6335</INCLINATION><RA_OF_ASC_NODE>265.0734</RA_OF_ASC_NODE><ARG_OF_PERICENTER>33.3164</ARG_OF_PERICENTER><MEAN_ANOMALY>326.8238</MEAN_ANOMALY></meanElements><tleParameters><EPHEMERIS_TYPE>0</EPHEMERIS_TYPE><CLASSIFICATION_TYPE>U</CLASSIFICATION_TYPE><NORAD_CAT_ID>48850</NORAD_CAT_ID><ELEMENT_SET_NO>999</ELEMENT_SET_NO><REV_AT_EPOCH>6995</REV_AT_EPOCH><BSTAR>.78762E-3</BSTAR><MEAN_MOTION_DOT>.194544E-2</MEAN_MOTION_DOT><MEAN_MOTION_DDOT>0</MEAN_MOTION_DDOT></tleParameters></data></segment></body></omm>
<omm id="CCSDS_OMM_VERS" version="2.0">
<header><CREATION_DATE/><ORIGINATOR/></header><body><segment><metadata><OBJECT_NAME>BD-28</OBJECT_NAME><OBJECT_ID>1998-067SN</OBJECT_ID><CENTER_NAME>EARTH</CENTER_NAME><REF_FRAME>TEME</REF_FRAME><TIME_SYSTEM>UTC</TIME_SYSTEM><MEAN_ELEMENT_THEORY>SGP4</MEAN_ELEMENT_THEORY></metadata><data><meanElements><EPOCH>2022-09-05T09:41:44.479392</EPOCH><MEAN_MOTION>16.04048507</MEAN_MOTION><ECCENTRICITY>.0007043</ECCENTRICITY><INCLINATION>51.6185</INCLINATION><RA_OF_ASC_NODE>257.7828</RA_OF_ASC_NODE><ARG_OF_PERICENTER>42.3364</ARG_OF_PERICENTER><MEAN_ANOMALY>317.8190</MEAN_ANOMALY></meanElements><tleParameters><EPHEMERIS_TYPE>0</EPHEMERIS_TYPE><CLASSIFICATION_TYPE>U</CLASSIFICATION_TYPE><NORAD_CAT_ID>48867</NORAD_CAT_ID><ELEMENT_SET_NO>999</ELEMENT_SET_NO><REV_AT_EPOCH>6879</REV_AT_EPOCH><BSTAR>.10892E-2</BSTAR><MEAN_MOTION_DOT>.725057E-2</MEAN_MOTION_DOT><MEAN_MOTION_DDOT>.26658E-3</MEAN_MOTION_DDOT></tleParameters></data></segment></body></omm>
<omm id="CCSDS_OMM_VERS" version="2.0">
<header><CREATION_DATE/><ORIGINATOR/></header><body><segment><metadata><OBJECT_NAME>ISS (NAUKA)</OBJECT_NAME><OBJECT_ID>2021-066A</OBJECT_ID><CENTER_NAME>EARTH</CENTER_NAME><REF_FRAME>TEME</REF_FRAME><TIME_SYSTEM>UTC</TIME_SYSTEM><MEAN_ELEMENT_THEORY>SGP4</MEAN_ELEMENT_THEORY></metadata><data><meanElements><EPOCH>2022-09-05T13:03:25.957152</EPOCH><MEAN_MOTION>15.50045901</MEAN_MOTION><ECCENTRICITY>.000289</ECCENTRICITY><INCLINATION>51.6445</INCLINATION><RA_OF_ASC_NODE>298.4897</RA_OF_ASC_NODE><ARG_OF_PERICENTER>196.2418</ARG_OF_PERICENTER><MEAN_ANOMALY>319.2646</MEAN_ANOMALY></meanElements><tleParameters><EPHEMERIS_TYPE>0</EPHEMERIS_TYPE><CLASSIFICATION_TYPE>U</CLASSIFICATION_TYPE><NORAD_CAT_ID>49044</NORAD_CAT_ID><ELEMENT_SET_NO>999</ELEMENT_SET_NO><REV_AT_EPOCH>35764</REV_AT_EPOCH><BSTAR>.10888E-3</BSTAR><MEAN_MOTION_DOT>.5773E-4</MEAN_MOTION_DOT><MEAN_MOTION_DDOT>0</MEAN_MOTION_DDOT></tleParameters></data></segment></body></omm>
<omm id="CCSDS_OMM_VERS" version="2.0">
<header><CREATION_DATE/><ORIGINATOR/></header><body><segment><metadata><OBJECT_NAME>FREGAT DEB</OBJECT_NAME><OBJECT_ID>2011-037PF</OBJECT_ID><CENTER_NAME>EARTH</CENTER_NAME><REF_FRAME>TEME</REF_FRAME><TIME_SYSTEM>UTC</TIME_SYSTEM><MEAN_ELEMENT_THEORY>SGP4</MEAN_ELEMENT_THEORY></metadata><data><meanElements><EPOCH>2022-09-05T08:55:39.936864</EPOCH><MEAN_MOTION>11.93905769</MEAN_MOTION><ECCENTRICITY>.0992997</ECCENTRICITY><INCLINATION>51.6977</INCLINATION><RA_OF_ASC_NODE>16.5280</RA_OF_ASC_NODE><ARG_OF_PERICENTER>200.3701</ARG_OF_PERICENTER><MEAN_ANOMALY>155.4723</MEAN_ANOMALY></meanElements><tleParameters><EPHEMERIS_TYPE>0</EPHEMERIS_TYPE><CLASSIFICATION_TYPE>U</CLASSIFICATION_TYPE><NORAD_CAT_ID>49271</NORAD_CAT_ID><ELEMENT_SET_NO>999</ELEMENT_SET_NO><REV_AT_EPOCH>5670</REV_AT_EPOCH><BSTAR>.15701E+0</BSTAR><MEAN_MOTION_DOT>.49044E-3</MEAN_MOTION_DOT><MEAN_MOTION_DDOT>0</MEAN_MOTION_DDOT></tleParameters></data></segment></body></omm>
<omm id="CCSDS_OMM_VERS" version="2.0">
<header><CREATION_DATE/><ORIGINATOR/></header><body><segment><metadata><OBJECT_NAME>BINAR-1</OBJECT_NAME><OBJECT_ID>1998-067SR</OBJECT_ID><CENTER_NAME>EARTH</CENTER_NAME><REF_FRAME>TEME</REF_FRAME><TIME_SYSTEM>UTC</TIME_SYSTEM><MEAN_ELEMENT_THEORY>SGP4</MEAN_ELEMENT_THEORY></metadata><data><meanElements><EPOCH>2022-09-05T11:03:40.419072</EPOCH><MEAN_MOTION>15.89383403</MEAN_MOTION><ECCENTRICITY>.0005659</ECCENTRICITY><INCLINATION>51.6262</INCLINATION><RA_OF_ASC_NODE>268.0756</RA_OF_ASC_NODE><ARG_OF_PERICENTER>23.5904</ARG_OF_PERICENTER><MEAN_ANOMALY>336.5360</MEAN_ANOMALY></meanElements><tleParameters><EPHEMERIS_TYPE>0</EPHEMERIS_TYPE><CLASSIFICATION_TYPE>U</CLASSIFICATION_TYPE><NORAD_CAT_ID>49272</NORAD_CAT_ID><ELEMENT_SET_NO>999</ELEMENT_SET_NO><REV_AT_EPOCH>5230</REV_AT_EPOCH><BSTAR>.97013E-3</BSTAR><MEAN_MOTION_DOT>.298506E-2</MEAN_MOTION_DOT><MEAN_MOTION_DDOT>0</MEAN_MOTION_DDOT></tleParameters></data></segment></body></omm>
<omm id="CCSDS_OMM_VERS" version="2.0">
<header><CREATION_DATE/><ORIGINATOR/></header><body><segment><metadata><OBJECT_NAME>CAPSAT</OBJECT_NAME><OBJECT_ID>1998-067SV</OBJECT_ID><CENTER_NAME>EARTH</CENTER_NAME><REF_FRAME>TEME</REF_FRAME><TIME_SYSTEM>UTC</TIME_SYSTEM><MEAN_ELEMENT_THEORY>SGP4</MEAN_ELEMENT_THEORY></metadata><data><meanElements><EPOCH>2022-09-05T08:12:30.607488</EPOCH><MEAN_MOTION>15.97669434</MEAN_MOTION><ECCENTRICITY>.0007247</ECCENTRICITY><INCLINATION>51.6308</INCLINATION><RA_OF_ASC_NODE>267.3043</RA_OF_ASC_NODE><ARG_OF_PERICENTER>27.1243</ARG_OF_PERICENTER><MEAN_ANOMALY>333.0143</MEAN_ANOMALY></meanElements><tleParameters><EPHEMERIS_TYPE>0</EPHEMERIS_TYPE><CLASSIFICATION_TYPE>U</CLASSIFICATION_TYPE><NORAD_CAT_ID>49276</NORAD_CAT_ID><ELEMENT_SET_NO>999</ELEMENT_SET_NO><REV_AT_EPOCH>5136</REV_AT_EPOCH><BSTAR>.12983E-2</BSTAR><MEAN_MOTION_DOT>.59718E-2</MEAN_MOTION_DOT><MEAN_MOTION_DDOT>.16378E-3</MEAN_MOTION_DDOT></tleParameters></data></segment></body></omm>
<omm id="CCSDS_OMM_VERS" version="2.0">
<header><CREATION_DATE/><ORIGINATOR/></header><body><segment><metadata><OBJECT_NAME>1998-067TD</OBJECT_NAME><OBJECT_ID>1998-067TD</OBJECT_ID><CENTER_NAME>EARTH</CENTER_NAME><REF_FRAME>TEME</REF_FRAME><TIME_SYSTEM>UTC</TIME_SYSTEM><MEAN_ELEMENT_THEORY>SGP4</MEAN_ELEMENT_THEORY></metadata><data><meanElements><EPOCH>2022-09-05T08:25:47.836704</EPOCH><MEAN_MOTION>15.70644759</MEAN_MOTION><ECCENTRICITY>.0002303</ECCENTRICITY><INCLINATION>51.6348</INCLINATION><RA_OF_ASC_NODE>284.0019</RA_OF_ASC_NODE><ARG_OF_PERICENTER>129.3798</ARG_OF_PERICENTER><MEAN_ANOMALY>230.7403</MEAN_ANOMALY></meanElements><tleParameters><EPHEMERIS_TYPE>0</EPHEMERIS_TYPE><CLASSIFICATION_TYPE>U</CLASSIFICATION_TYPE><NORAD_CAT_ID>51441</NORAD_CAT_ID><ELEMENT_SET_NO>999</ELEMENT_SET_NO><REV_AT_EPOCH>3469</REV_AT_EPOCH><BSTAR>.74938E-3</BSTAR><MEAN_MOTION_DOT>.95038E-3</MEAN_MOTION_DOT><MEAN_MOTION_DDOT>0</MEAN_MOTION_DDOT></tleParameters></data></segment></body></omm>

</ndm>
