ISS DEB                 
1 48833U 98067SK  22248.40449906  .00076608  00000+0  56827-3 0  9997
2 48833  51.6337 275.3381 0003446  14.9552 345.1547 15.72183626 71700
RAMSAT                  
1 48850U 98067SL  22248.44791667  .00194544  00000+0  78762-3 0  9996
2 48850  51.6335 265.0734 0006355  33.3164 326.8238 15.85177259 69957
BD-28                   
1 48867U 98067SN  22248.40398703  .00725057  26658-3  10892-2 0  9993
2 48867  51.6185 257.7828 0007043  42.3364 317.8190 16.04048507 68790
ISS (NAUKA)             
1 49044U 21066A   22248.54405043  .00005773  00000+0  10888-3 0  9998
2 49044  51.6445 298.4897 0002890 196.2418 319.2646 15.50045901357641
FREGAT DEB              
1 49271U 11037PF  22248.37199001  .00049044  00000+0  15701+0 0  9996
2 49271  51.6977  16.5280 0992997 200.3701 155.4723 11.93905769 56705
BINAR-1                 
1 49272U 98067SR  22248.46088448  .00298506  00000+0  97013-3 0  9996
2 49272  51.6262 268.0756 0005659  23.5904 336.5360 15.89383403 52300
CAPSAT                  
1 49276U 98067SV  22248.34202092  .00597180  16378-3  12983-2 0  9991
2 49276  51.6308 267.3043 0007247  27.1243 333.0143 15.97669434 51363
1998-067TD              
1 51441U 98067TD  22248.35124811  .00095038  00000+0  74938-3 0  9996
2 51441  51.6348 284.0019 0002303 129.3798 230.7403 15.70644759 34694
